IRIDIUM 8
1 24792U 97020A   01248.93846743  .00000045  00000-0  91349-5 0  6178
2 24792  86.3997 207.0330 0002371  64.8988 295.2452 14.34217883227145
IRIDIUM 7
1 24793U 97020B   01249.35073787 -.00000029  00000-0 -17366-4 0  6165
2 24793  86.4012 206.8886 0002512  74.2585 285.8897 14.34217190227209
IRIDIUM 6
1 24794U 97020C   01248.43740435 +.00000129 +00000-0 +38872-4 0 05607
2 24794 086.3993 207.2940 0002538 085.8307 274.3194 14.34217951227074
IRIDIUM 5
1 24795U 97020D   01249.12874742 -.00000012  00000-0 -11198-4 0  6969
2 24795  86.4005 207.0000 0002360  53.8885 306.2529 14.34216964227254
IRIDIUM 4
1 24796U 97020E   01248.94481192 -.00000024  00000-0 -15520-4 0  6452
2 24796  86.4004 207.0133 0002576  65.1065 295.0400 14.34216736227166
IRIDIUM 914
1 24836U 97030A   01248.95019347 +.00000592 +00000-0 +19852-3 0 04961
2 24836 086.3932 237.6952 0001295 039.1653 320.9641 14.35667219220973
IRIDIUM 12
1 24837U 97030B   01249.07508802 -.00000021  00000-0 -14722-4 0  6339
2 24837  86.3946 238.5148 0002444  73.3961 286.7503 14.34217006220919
IRIDIUM 09
1 24838U 97030C   01248.97264978 +.00014715 +00000-0 +78714-3 0 06930
2 24838 086.4406 223.8622 0080678 274.6937 084.5093 15.12111934223304
IRIDIUM 10
1 24839U 97030D   01248.92286500 -.00000097  00000-0 -41606-4 0  6145
2 24839  86.3938 238.5826 0002406  76.9656 283.1813 14.34216727220906
IRIDIUM 13
1 24840U 97030E   01249.36050104  .00000117  00000-0  34630-4 0  6123
2 24840  86.3946 238.4151 0002470  67.2081 292.9378 14.34218500220953
IRIDIUM 16
1 24841U 97030F   01249.09411541  .00000098  00000-0  28076-4 0  6282
2 24841  86.3949 238.5645 0002520  72.5659 287.5816 14.34217639220917
IRIDIUM 911
1 24842U 97030G   01248.99177085 +.00000819 +00000-0 +24936-3 0 05384
2 24842 086.4453 240.9674 0017820 097.7126 262.6103 14.40767323221657
IRIDIUM 15
1 24869U 97034A   01248.58378855 -.00000030  00000-0 -17925-4 0  6109
2 24869  86.3946 270.3117 0002258  74.4901 285.6544 14.34217059217819
IRIDIUM 17
1 24870U 97034B   01249.13559135 -.00000013  00000-0 -11704-4 0  6262
2 24870  86.3945 270.1120 0002365  70.8329 289.3076 14.34217450217899
IRIDIUM 920
1 24871U 97034C   01248.95397200 +.00000503 +00000-0 +16601-3 0 05086
2 24871 086.3964 269.4807 0011444 168.6904 191.4547 14.36113301218010
IRIDIUM 18
1 24872U 97034D   01248.61549991  .00000022  00000-0  69874-6 0  6288
2 24872  86.3930 270.3357 0002251  74.0869 286.0574 14.34217494217815
IRIDIUM 921
1 24873U 97034E   01249.04431253  .00003795  00000-0  43446-3 0  5618
2 24873  86.3916 221.3927 0009815 321.6823  38.3702 14.85688208224813
IRIDIUM 26
1 24903U 97043A   01249.15995315  .00000057  00000-0  13277-4 0  6820
2 24903  86.4020 143.8563 0002314  60.7394 299.4037 14.34218262211831
IRIDIUM 25
1 24904U 97043B   01248.77305485  .00000023  00000-0  11756-5 0  6319
2 24904  86.4012 144.0129 0002334  63.9229 296.2186 14.34217469211746
IRIDIUM 46
1 24905U 97043C   01248.78574548 -.00000019 +00000-0 -13799-4 0 06516
2 24905 086.4019 144.0394 0002321 063.8821 296.2613 14.34216570211759
IRIDIUM 23
1 24906U 97043D   01248.69060277 +.00000020 +00000-0 -27720-7 0 06609
2 24906 086.4024 144.0147 0002236 058.4787 301.6627 14.34217068211746
IRIDIUM 22
1 24907U 97043E   01248.75402926  .00000040  00000-0  73529-5 0  6199
2 24907  86.4005 144.0233 0002216  67.5649 292.5781 14.34217535211757
IRIDIUM 29
1 24944U 97051A   01249.18240807  .00000041  00000-0  76216-5 0  5900
2 24944  86.4035 175.3961 0002496  58.4446 301.6995 14.34217016208388
IRIDIUM 32
1 24945U 97051B   01248.85259419  .00000010  00000-0 -34795-5 0  5906
2 24945  86.4032 175.5325 0002734  51.7755 308.3686 14.34217139208350
IRIDIUM 33
1 24946U 97051C   01248.85893356  .00000067  00000-0  16872-4 0  5604
2 24946  86.4035 175.5134 0002559  59.0818 301.0630 14.34217573208348
IRIDIUM 27
1 24947U 97051D   01249.18792481  .00039594  00000-0  95873-3 0  9551
2 24947  86.6139 138.0050 0002428  37.7172 322.4283 15.40935173219892
IRIDIUM 28
1 24948U 97051E   01248.33884224 +.00000331 +00000-0 +11111-3 0 05382
2 24948 086.4037 175.7487 0002658 088.2199 271.9305 14.34219055208252
IRIDIUM 30
1 24949U 97051F   01249.18875006  .00000065  00000-0  16238-4 0  6016
2 24949  86.4035 175.3910 0002420  64.4699 295.6749 14.34217154208383
IRIDIUM 31
1 24950U 97051G   01249.19509398 -.00000005  00000-0 -89634-5 0  6126
2 24950  86.4027 175.3807 0002531  68.4206 291.7263 14.34216944208397
IRIDIUM 19
1 24965U 97056A   01248.96383967 +.00000020 +00000-0 +54335-7 0 06074
2 24965 086.4000 206.9769 0002457 063.1671 296.9776 14.34217256206501
IRIDIUM 35
1 24966U 97056B   01248.97652535 +.00000007 +00000-0 -46377-5 0 06358
2 24966 086.4017 207.0178 0002538 067.2745 292.8719 14.34216933206483
IRIDIUM 36
1 24967U 97056C   01249.33170903  .00000064  00000-0  15778-4 0  6008
2 24967  86.3998 206.8663 0002495  69.6071 290.5395 14.34217644206673
IRIDIUM 37
1 24968U 97056D   01248.95115288 +.00000098 +00000-0 +27966-4 0 06314
2 24968 086.4005 207.0386 0002588 058.5282 301.6168 14.34218434206482
IRIDIUM 34
1 24969U 97056E   01249.31902406  .00000074  00000-0  19538-4 0  5973
2 24969  86.4004 206.8595 0002539  67.0639 293.0828 14.34217694206538
IRIDIUM 43
1 25039U 97069A   01248.60915619 +.00000082 +00000-0 +22176-4 0 05945
2 25039 086.3957 270.3469 0002163 065.1278 295.0143 14.34218446200217
IRIDIUM 41
1 25040U 97069B   01249.09119388  .00000042  00000-0  79284-5 0  5804
2 25040  86.3933 270.1233 0002300  58.8848 301.2568 14.34218142200286
IRIDIUM 40
1 25041U 97069C   01248.55841803  .00000022  00000-0  90051-6 0  5780
2 25041  86.3932 270.3569 0002271  76.5559 283.5896 14.34217323200223
IRIDIUM 39
1 25042U 97069D   01249.12290530  .00000088  00000-0  24464-4 0  5831
2 25042  86.3951 270.1140 0002408  78.5985 281.5481 14.34218304200289
IRIDIUM 38
1 25043U 97069E   01248.59647348  .00000060  00000-0  14214-4 0  5961
2 25043  86.3941 270.2907 0002488  64.7116 295.4338 14.34217909200254
IRIDIUM 42
1 25077U 97077A   01248.55207255 +.00000096 +00000-0 +27355-4 0 06119
2 25077 086.3945 270.3798 0002210 067.1821 292.9610 14.34218283196061
IRIDIUM 44
1 25078U 97077B   01248.94154746 +.00000336 +00000-0 +11054-3 0 03986
2 25078 086.3951 269.7705 0004212 064.2416 295.9200 14.35224067196113
IRIDIUM 45
1 25104U 97082A   01248.77940054  .00000034  00000-0  50869-5 0  5591
2 25104  86.4016 144.0309 0002338  59.2463 300.8963 14.34217284194295
IRIDIUM 24
1 25105U 97082B   01248.72428509 +.00000669 +00000-0 +22354-3 0 04356
2 25105 086.3982 142.8989 0010723 183.6114 176.5009 14.35997595194367
IRIDIUM 47
1 25106U 97082C   01248.79208545  .00000030  00000-0  35266-5 0  5463
2 25106  86.4030 144.0284 0002322  59.8907 300.2518 14.34217546194298
IRIDIUM 49
1 25108U 97082E   01248.73500241  .00000052  00000-0  11361-4 0  5583
2 25108  86.4009 144.0171 0002374  69.1183 291.0266 14.34217894194291
IRIDIUM 52
1 25169U 98010A   01249.04337350  .00000137  00000-0  41801-4 0  4930
2 25169  86.3949 238.5573 0002313  87.4924 272.6543 14.34218030185740
IRIDIUM 56
1 25170U 98010B   01248.96726285 -.00000010 +00000-0 -10464-4 0 01986
2 25170 086.3962 238.5698 0002466 072.8052 287.3418 14.34217099185719
IRIDIUM 54
1 25171U 98010C   01249.06874468  .00000021  00000-0  59574-6 0  5640
2 25171  86.3951 238.5399 0002420  70.1836 289.9602 14.34217283185894
IRIDIUM 50
1 25172U 98010D   01248.96092084 +.00000024 +00000-0 +13662-5 0 05443
2 25172 086.3941 238.5676 0002360 078.9092 281.2380 14.34217478185710
IRIDIUM 53
1 25173U 98010E   01248.97994838 +.00000034 +00000-0 +49779-5 0 05318
2 25173 086.3955 238.5641 0002405 070.1431 290.0030 14.34217416185733
IRIDIUM 51
1 25262U 98018A   01248.96757058 -.00000532 +00000-0 -16479-3 0 05522
2 25262 086.4535 207.0025 0003614 057.9948 302.1607 14.43129877181625
IRIDIUM 61
1 25263U 98018B   01247.84119765  .00000020  00000-0  63571-7 0  5097
2 25263  86.3993 207.5055 0002556  61.3583 298.7869 14.34217905180651
IRIDIUM 55
1 25272U 98019A   01249.30925927  .00000079  00000-0  21250-4 0  5264
2 25272  86.4024 175.3094 0002518  61.1299 299.0156 14.34217616180069
IRIDIUM 57
1 25273U 98019B   01248.86528113 -.00000049  00000-0 -24633-4 0  5112
2 25273  86.4043 175.5540 0002275  63.5468 296.5961 14.34216029180000
IRIDIUM 58
1 25274U 98019C   01248.31346907 +.00000606 +00000-0 +20927-3 0 04827
2 25274 086.4036 175.7969 0002378 079.9688 280.1774 14.34220888179927
IRIDIUM 59
1 25275U 98019D   01248.87796185  .00000011  00000-0 -31958-5 0  4803
2 25275  86.4061 175.4895 0002473  60.9360 299.2083 14.34217130180005
IRIDIUM 60
1 25276U 98019E   01248.81453486  .00000039  00000-0  67763-5 0  5513
2 25276  86.4057 175.5827 0002457  63.0047 297.1394 14.34217552179991
IRIDIUM 62
1 25285U 98021A   01248.70620781 +.00000092 +00000-0 +25967-4 0 05448
2 25285 086.3975 112.4373 0002271 057.7251 302.4164 14.34218176178937
IRIDIUM 63
1 25286U 98021B   01248.64278228 +.00000014 +00000-0 -18848-5 0 05353
2 25286 086.3966 112.4765 0002302 062.4085 297.7343 14.34217366178920
IRIDIUM 64
1 25287U 98021C   01249.13750210  .00000033  00000-0  47763-5 0  5151
2 25287  86.3957 112.2605 0002185  65.4800 294.6624 14.34217992178977
IRIDIUM 65
1 25288U 98021D   01248.65546812 -.00000006 +00000-0 -91649-5 0 05221
2 25288 086.3986 112.4545 0002412 056.0111 304.1313 14.34217050178921
IRIDIUM 66
1 25289U 98021E   01248.66180531 +.00000074 +00000-0 +19444-4 0 05242
2 25289 086.3974 112.4177 0002361 031.4724 328.6606 14.34218349178928
IRIDIUM 67
1 25290U 98021F   01248.59837952 +.00000169 +00000-0 +53128-4 0 04647
2 25290 086.3953 112.4754 0002223 084.9226 275.2194 14.34219210178922
IRIDIUM 68
1 25291U 98021G   01248.67449411  .00000088  00000-0  24216-4 0  5148
2 25291  86.3952 112.4627 0002302  58.1502 301.9877 14.34218251178906
